FLOCK 4G-5              
1 62663U 25009BG  26068.45638436  .00011278  00000+0  40688-3 0  9997
2 62663  97.4058 151.2478 0002094 314.5072  45.5996 15.28679529 63699
STARLINK-34766          
1 66505U 25263W   26068.16835736  .00033600  00000+0  12253-2 0  9997
2 66505  43.0014 353.2552 0001371 268.5653  91.5042 15.27571596 18826
